RecID,MAK,Address,Suite,City,State,Zip,Plus4,DeliveryPointCode,CarrierRoute
1,1000000027,2110 E 12th St,,Pueblo,CO,81001,3309,104,C068
2,1000000034,10 Seaside Ct,,Palm Coast,FL,32164,5535,105,R027
3,1000000037,1368 Goldwin Smith Hall,,Ithaca,NY,14853,3201,689,C051
4,1000000096,4610 Refugio Ct,,Camarillo,CA,93012,0988,109,C036
5,1000000199,1105 E Oak St,,Winnfield,LA,71483,2919,051,C001
6,1000000201,77 Sullivan Pl,Apt 2E,Brooklyn,NY,11225,2521,252,C020
7,1000000218,419 S Walnut St,,Muncie,IN,47305,2459,191,C001
8,1000000233,3158 Mack Cir,,Mc Coll,SC,29570,6312,582,R002
9,1000000268,829 Main Library,,Iowa City,IA,52242,1420,297,C101
10,1000000301,937 Carlos Dr,,Fort Walton Beach,FL,32547,1565,372,C042
11,1000000317,918 W Bridgetowne Ct,,Dunlap,IL,61525,9202,189,R004
12,1000000320,14551 Creek Ln,,Waterford,VA,20197,1424,514,R072
13,1000000378,4580 Bowen Science Building,,Iowa City,IA,52242,1109,806,C103
14,1000000482,2450 County Road 28,Apt 3A,Canandaigua,NY,14424,8063,314,R006
15,1000000553,636 Brooklyn Ave,Apt 6C,Brooklyn,NY,11203,1616,630,C001
16,1000000555,250 Perry St,,Milpitas,CA,95035,5712,508,C056
17,1000000576,7963 W Coolidge St,,Phoenix,AZ,85033,1827,634,C074
18,1000000594,3000 Mulford Rd,,Mulberry,FL,33860,8665,005,R007
19,1000000652,PO Box 522,,Brushton,NY,12916,0522,228,B003
20,1000000714,4620 Longshore Ave,Unit 8971,Philadelphia,PA,19135,2246,467,C770
21,1000000839,2031 N Clifton Ave,,Chicago,IL,60614,4119,314,C082
22,1000000849,10115 Highland Meadow Cir,Apt 40-201,Parker,CO,80134,9396,511,R046
23,1000000850,733 Grove St,Apt 19,Manchester,NH,03103,4357,194,C016
24,1000000858,4300 Emmons St,,McDonough,GA,30253,8133,002,R009
25,1000000939,2021 N Carlisle St,Apt 2,Philadelphia,PA,19121,2584,025,C032
26,1000001019,13113 Bold Run Hill Rd,,Wake Forest,NC,27587,8003,136,R007
27,1000001022,9 E Front St,Unit 504,Three Forks,MT,59752,2227,298,C770
28,1000001164,7718 Alfred Analytical Lab,,Alfred,NY,14802,1145,185,C098
29,1000001175,600 N Liberty St,,Vermont,IL,61484,9216,009,R002
30,1000001292,45 Charles St,,Auburndale,MA,02466,1709,456,C065
31,1000001295,3100 Connecticut Ave NW,Apt 221,Washington,DC,20008,5120,714,C017
32,1000001332,5301 Loruth Ter,,Madison,WI,53711,2629,013,C016
33,1000001356,1031 Swift Gulch Rd,Unit 15-201,Avon,CO,81620,7209,014,R777
34,1000001403,1229 Fairview Rd,,Rockmart,GA,30153,2765,297,R005
35,1000001404,5212 N Raymond Rd,,Luther,MI,49656,9319,125,R011
36,1000001413,PO Box 4740,,Ithaca,NY,14852,4740,401,B048
37,1000001424,6629 Broadway,Apt 3L,Bronx,NY,10471,2037,528,C008
38,1000001425,17473 Old Harmony Dr,Apt 202,Fort Myers,FL,33908,4580,523,R164
39,1000001439,10759 Churchill Rd,,Rives Junction,MI,49277,9791,591,R002
40,1000001472,951 20th St,Unit 573,Denver,CO,80201,5225,483,C770
41,1000001517,1691 285th St,,Oskaloosa,IA,52577,9000,915,R005
42,1000001529,PO Box 591,,Dos Palos,CA,93620,0591,915,B005
43,1000001533,10 Old Sanford Rd,,Berwick,ME,03901,2401,109,R022
44,1000001559,401 Van Ness Ave,Ste 321,San Francisco,CA,94102,4570,963,C006
45,1000001573,19330 SW Rosa Rd,,Beaverton,OR,97078,4451,302,C074
46,1000001687,PO Box 582,,Deweyville,TX,77614,0582,820,B006
47,1000001798,1647 Yuba St,Unit 991538,Redding,CA,96099,5063,887,C770
48,1000001818,87821 Oak Hill Dr,,Eugene,OR,97402,9157,213,R006
49,1000001828,4810 N Marlborough Dr,,Milwaukee,WI,53217,5959,103,C006
50,1000001854,1000 Roy St,Apt 104,Ortonville,MN,56278,1152,292,C002
51,1000001914,1945 1/2 Arapahoe St,,Los Angeles,CA,90007,1204,458,C004
52,1000001980,4250 W 37th St N,,Wichita,KS,67205,9306,507,R065
53,1000001993,3342 N 5th Ave,,Laurel,MS,39440,1718,427,C011
54,1000002000,2233 Pine St,,Eldorado,IL,62930,2150,336,C002
55,1000002022,1940 400th St,,Hawarden,IA,51023,7526,405,R002
56,1000002025,14618 Cambridge Dr,,Upper Marlboro,MD,20772,7749,186,R004
57,1000002061,250 S Ocotillo Ave,Unit 131,Benson,AZ,85602,2506,312,C770
58,1000002067,5244 Prestwick St,,Virginia Beach,VA,23464,8132,449,C076
59,1000002079,518 Harrow Rd,,Richmond,VA,23225,4234,184,C024
60,1000002085,220 W Bell Rd,Apt 1077,Phoenix,AZ,85023,7487,529,C087
61,1000002183,1322 Old Ivy Way,,Mount Pleasant,SC,29466,6701,225,R048
62,1000002223,909 Fannin St,Ste 1225,Houston,TX,77010,1019,004,C001
63,1000002236,123 Broadway,Apt 219,Seattle,WA,98122,7032,691,C104
64,1000002295,5507 Cabbage Spring Rd,,Mount Airy,MD,21771,8016,070,R018
65,1000002318,PO Box 160,,Clarksville,MD,21029,0160,603,B003
66,1000002320,731 Echo Ave,,Romeoville,IL,60446,1124,318,C024
67,1000002419,11345 Panther Creek Pkwy,,Jacksonville,FL,32221,1039,458,R022
68,1000002486,51 E Country Cove Way,,Kissimmee,FL,34743,4521,511,R016
69,1000002494,5221 Court Hall,,Ithaca,NY,14853,8501,212,C053
70,1000002566,238 Garden Ct,,Lauderdale By The Sea,FL,33308,5421,380,C010
71,1000002636,997 Gobblers Mountain Rd,,Reeds Spring,MO,65737,8830,977,R001
72,1000002652,15521 Orchard Run Dr,,Bowie,MD,20715,4609,213,C027
73,1000002715,PO Box 310815,,Fontana,CA,92331,0815,152,B011
74,1000002754,PO Box 3264,,Sarasota,FL,34230,3264,643,B032
75,1000002783,15115 2nd Ave NE,,Duvall,WA,98019,5101,150,R003
76,1000002825,2819 Hayes Ave,Ste 3,Sandusky,OH,44870,5391,036,C007
77,1000002869,209 Melody Way,,Red Oak,TX,75154,8898,096,R018
78,1000002880,17382 Springfield Dr,,Conroe,TX,77302,7107,826,R117
79,1000002887,18146 Garland Path,,Lakeville,MN,55044,1200,469,R032
80,1000002978,7005 N 54th St,,Omaha,NE,68152,2441,052,C030
81,1000003043,2024 S Wall Ave,,Joplin,MO,64804,2072,241,C021
82,1000003053,208 Jane St,,Richeyville,PA,15358,1026,081,R777
83,1000003057,342 Gulfway Dr,,Hackberry,LA,70645,4911,427,H063
84,1000003090,1 Earhart St,Unit 717,Cambridge,MA,02141,1859,928,C029
85,1000003129,8545 E FM 916,,Grandview,TX,76050,4719,452,R005
86,1000003263,630 Prince George Dr,,Lancaster,PA,17601,8802,304,C088
87,1000003278,534 Musgo Dr,,Laredo,TX,78046,8621,341,R023
88,1000003294,2243 W Florida Ave,,Hemet,CA,92545,3610,438,C080
89,1000003302,419 Sienna Dr,,Rose Hill,KS,67133,8821,191,R005
90,1000003452,154 Colie Bailey Rd,,Deridder,LA,70634,7971,547,R002
91,1000003529,556 40th St,Apt B,Newport News,VA,23607,2860,745,C023
92,1000003544,3780 E Woodmen Rd,,Colorado Springs,CO,80920,4139,806,R063
93,1000003546,225 1st St,Apt 4P,Mineola,NY,11501,3931,664,C009
94,1000003553,6 W Sand Pond Rd,,Limington,ME,04049,3117,065,R003
95,1000003579,PSC 45 Box 978,,APO,AE,09468,0010,787,C010
96,1000003618,2799 Temple Ave,Apt 3C,Cincinnati,OH,45211,5837,338,C092
97,1000003630,882 Abrego St,,Monterey,CA,93940,3104,827,C033
98,1000003758,9202 Santayana Dr,,Fairfax,VA,22031,3064,027,C019
99,1000003787,7858 California Ave,Apt 129,Riverside,CA,92504,2501,291,C027
100,1000003789,3500 Bullock Ln,Spc 17,San Luis Obispo,CA,93401,7150,172,C039
101,1000003798,1125 Bethel Ave,Unit 2328,Port Orchard,WA,98366,3278,783,C770
102,1000003836,12 Timbers Way,,Savannah,GA,31406,8206,127,R019
103,1000003864,606 Orleans St,,Monroe,LA,71201,2712,061,C009
104,1000003879,3584 Oak Grove Rd,,Poplar Bluff,MO,63901,1580,845,R014
105,1000003942,1750 McCulloch Blvd N,Unit 543,Lake Havasu City,AZ,86405,5023,430,C770
106,1000004069,PO Box 4021,,Atlanta,GA,30302,4021,212,B004
107,1000004087,2613 W 3rd St,,Dayton,OH,45417,2227,132,C022
108,1000004161,1023 E 1425 N,,Layton,UT,84040,8350,233,R005
109,1000004219,659 Pineview Dr,,San Jose,CA,95117,1135,593,C005
110,1000004299,5979 Williams Rd,,Munnsville,NY,13409,3114,798,R002
111,1000004332,52 Cedar St,,Massapequa,NY,11758,5727,520,C034
112,1000004495,PO Box 284,,Bristol,VT,05443,0284,848,B003
113,1000004522,PO Box 615,,Landing,NJ,07850,0615,152,B007
114,1000004571,55 Moondale Rd,,Alamogordo,NM,88310,9263,550,R001
115,1000004654,604 Duane St,,Corry,PA,16407,1405,048,C002
116,1000004664,16275 Lovings Rd,,Heavener,OK,74937,9205,752,R001
117,1000004840,401 E 63rd Ter,,Kansas City,MO,64110,3333,015,C024
118,1000004879,518 Brian Ave,Unit 556,Silverthorne,CO,80498,5024,316,C770
119,1000004887,311 S Scarborough St,,Olathe,KS,66062,1602,119,C003
120,1000004933,Unit 100316 Box 286,,FPO,AE,09583,1602,862,C316
121,1000004983,PO Box 8461,,Portland,OR,97207,8461,619,B004
122,1000005013,413 Van Emburgh Ave,,Ridgewood,NJ,07450,2227,137,C029
123,1000005022,11623 Columbia Park Dr E,,Jacksonville,FL,32258,2491,239,R173
124,1000005023,6990 Van Camp Rd,,Girard,PA,16417,8747,906,R002
125,1000005031,1481 Hillebrandt Acres,,Beaumont,TX,77705,8191,816,R014
126,1000005052,18608 Mescalero St,,Rowland Heights,CA,91748,3718,084,C092
127,1000005071,11402 Bedell St,,Jamaica,NY,11434,1126,025,C005
128,1000005208,PO Box 456,,Upton,KY,42784,0456,569,B005
129,1000005226,57 W Moser Ave,,Coaldale,PA,18218,1434,576,C001
130,1000005233,4886 Mount Armour Dr,,San Diego,CA,92111,3923,865,C011
131,1000005298,522 Elsie Ave,,Edwardsville,IL,62025,1432,221,C006
132,1000005320,364 Upper Mill Dr,,Antioch,TN,37013,4552,640,R030
133,1000005333,PO Box 103,,Callao,MO,63534,0103,032,B002
134,1000005388,143 Stoneridge Dr,Apt L15,Columbia,SC,29210,8266,257,C081
135,1000005474,3960 Parliament Pl,Apt 80,Dayton,OH,45429,4340,807,C014
136,1000005523,116 Bluebonnet Cir,Apt 61,Corrigan,TX,75939,3809,610,R002
137,1000005580,3252 MacKenzie N,,Alfred,NY,14802,1126,528,C098
138,1000005599,48940 Yampa Ct,,Fremont,CA,94539,7757,400,C050
139,1000005653,2870 Florida Blvd,Apt 7,Delray Beach,FL,33483,4624,076,C038
140,1000005685,2701 Homestead Rd,Apt 412,Chapel Hill,NC,27516,8754,122,R029
141,1000005691,28 S Mount Olive Rd,,Vilonia,AR,72173,8082,282,R003
142,1000005694,1277 Potrero Cir,,Suisun City,CA,94585,4119,770,R007
143,1000005744,1274 Channings Lake Ct,,Lawrenceville,GA,30043,6410,748,R019
144,1000005798,4240 Swanson Way,Unit 209,Castle Rock,CO,80109,6323,594,C036
145,1000005908,1814 Misty Ridge Ln,,Grafton,WI,53024,9108,143,R003
146,1000005963,3843 Roberts Rd,,Hopkins,SC,29061,9321,430,R028
147,1000006096,3018 Ingleside Dr,,Cleveland,OH,44134,2922,180,C010
148,1000006097,3 Desert Willow Ct,,Manvel,TX,77578,1511,035,R012
149,1000006139,606 E Woodland Park Ave,Apt 607,Chicago,IL,60616,4150,579,C031
150,1000006164,1021 Denman Ct,,Westerville,OH,43081,4552,215,C036
151,1000006173,104 Ucla Ln,,Altoona,PA,16602,7489,043,C075
152,1000006277,924 E Fond Dulac,,Idlewild,MI,49642,9511,243,R011
153,1000006313,354 Amber Dr,,Lititz,PA,17543,6501,549,R015
154,1000006352,53 W Jackson Blvd,Ste 501,Chicago,IL,60604,3415,263,C019
155,1000006449,40 Loantaka Way,Apt J,Madison,NJ,07940,1922,826,C016
156,1000006481,5153 Morning Glory Ct,,Chino Hills,CA,91709,7431,531,R060
157,1000006491,2901 Niagara St,Unit 467,Sanborn,NY,14132,7013,170,C770
158,1000006540,173 Belknap St,,Concord,MA,01742,2301,730,C002
159,1000006564,403 Rising Sun Cir,,Greenwood,MS,38930,7515,036,R004
160,1000006617,PO Box 42360,,Pittsburgh,PA,15203,0360,604,B003
161,1000006622,11026 Ashcroft Dr,,Houston,TX,77096,6024,261,C037
162,1000006647,11100 Domain Dr,Apt 170,Jacksonville,FL,32256,4139,456,R197
163,1000006648,19 Shipwatch Rd,,Savannah,GA,31410,2946,190,R027
164,1000006671,8881 Church Rd,,Le Roy,NY,14482,9720,814,R001
165,1000006673,4 Candle Ln,,Levittown,NY,11756,2502,047,C015
166,1000006782,207 Hummel St,,Harrisburg,PA,17104,3310,073,C066
167,1000006790,11110 Center Hwy,Ste 5,Irwin,PA,15642,2084,053,C020
168,1000006802,100 Ashton Dr,,Mount Pleasant,PA,15666,2162,005,R006
169,1000006937,108 Northwest Ave,,Tallmadge,OH,44278,1810,087,C001
170,1000007035,Unit 2440 Box 25,,DPO,AE,09860,0025,253,C001
171,1000007179,990 Carlton Chapel Church Rd,,Warsaw,NC,28398,7570,902,R001
172,1000007183,110 Woodbridge Ave,Apt J25,Ansonia,CT,06401,1550,053,C014
173,1000007278,1564 Landon Ave,,Jacksonville,FL,32207,8670,645,C043
174,1000007352,3005 Truax Rd,,Wellsville,NY,14895,9531,050,R003
175,1000007369,2930 Point East Dr,Apt E514,Aventura,FL,33160,2686,546,C070
176,1000007374,1622 E Marine View Dr,Apt J206,Everett,WA,98201,2086,068,C071
177,1000007389,1505 Claire St,,Charleston,WV,25302,3805,057,C010
178,1000007409,875 Harmon Ave,,Hamilton,OH,45011,4451,753,C038
179,1000007418,793 Iyannough Rd,Ste N115A,Hyannis,MA,02601,5038,519,C011
180,1000007519,2408 W Allen St,,Allentown,PA,18104,4933,089,C077
181,1000007524,483 Pleasant St,,Leicester,MA,01524,1262,836,C003
182,1000007568,8723 Sabal Way,,Port Richey,FL,34668,5528,238,C052
183,1000007580,PO Box 461,,Ogallala,NE,69153,0461,618,B004
184,1000007693,2826 Maple Leaf Dr SW,,Port Washington,OH,43837,9233,260,R092
185,1000007781,24871 Laguna Vis,,Laguna Niguel,CA,92677,7471,712,C013
186,1000007860,1150 Simonton St,Apt 1005,Covington,TN,38019,1726,553,R007
187,1000007868,PO Box 458,,Columbus,NE,68602,0458,588,B003
188,1000007985,243 Connors Dr,,South Amboy,NJ,08879,1343,430,C011
189,1000008056,20 Terrace Ave,Apt D16,Hasbrouck Heights,NJ,07604,2443,460,C061
190,1000008157,PO Box 3939,,Pembroke,NC,28372,3939,392,B036
191,1000008171,504 Main St,,Brandon,IA,52210,9702,048,R002
192,1000008209,139 County Road 307,,Oglesby,TX,76561,2033,395,R001
193,1000008230,PO Box 81,,Amboy,MN,56010,0081,810,B001
194,1000008297,220 Liborio Dr,,Middletown,DE,19709,3107,201,R015
195,1000008429,4350 W Arabian Trl,,Flagstaff,AZ,86005,2536,500,R012
196,1000008479,1047 N Dixon Rd,,Milton,KS,67106,8024,475,R001
197,1000008635,PO Box 31554,,Tampa,FL,33631,3554,548,B013
198,1000008871,1580 Corey Creek Ln,,Southold,NY,11971,4817,803,R003
199,1000008900,1930 Elizabeth St,,Elkhart,IN,46516,4240,305,C042
200,1000008904,PO Box 673,,Lawndale,CA,90260,0673,737,B012
201,1000008973,1140 Sanders Rd,,Sanford,NC,27332,0688,407,R018
202,1000008983,21878 US Highway 18,,Apple Valley,CA,92307,3916,785,C058
203,1000008986,7916 Niwot Rd,Unit 208,Niwot,CO,80503,7165,582,R007
204,1000009084,690 Hollow Rd,,Ona,WV,25545,7038,902,R011
205,1000009092,811 Old Liberty Rd,,Asheboro,NC,27203,3413,113,C013
206,1000009115,103 Southampton A,,West Palm Beach,FL,33417,2339,032,C060
207,1000009193,505 Aster St,,Los Alamos,NM,87547,3899,055,C014
208,1000009265,4629 E 80th St,Apt 3B,Tulsa,OK,74136,8934,320,C037
209,1000009296,238 Duncan Ave,,Wilmington,DE,19803,2320,381,C025
210,1000009328,1805 Bomar St,,Marshall,TX,75670,6727,058,C003
211,1000009376,3303 E Lewis Ln,,Nampa,ID,83686,8908,031,R013
212,1000009455,7100 Tuttle Creek Blvd,,Manhattan,KS,66503,9084,009,R004
213,1000009495,121 Lynemore Dr,,Townsend,DE,19734,2836,214,R406
214,1000009504,PO Box 458,,Paris,TN,38242,0458,581,B005
215,1000009522,3009 W Sampler Ln,,Monrovia,IN,46157,6113,097,R073
216,1000009571,4375 Macedonia Rd,,Henry,TN,38231,6606,753,R006
217,1000009577,9108 Church St,Unit 408,Manassas,VA,20108,8017,085,C771
218,1000009617,711 Spruce St,Unit 6273,Brookings,OR,97415,0843,739,C770
219,1000009680,955 S Water St,,New Bedford,MA,02744,2624,559,C007
220,1000009681,118 Ferrara Ave,,Hazleton,PA,18201,7554,188,C003
221,1000009725,411 S Fran Ave,Apt 7,Butler,MO,64730,1252,073,R003
222,1000009770,3415 Castlewind Dr,,Katy,TX,77450,8633,151,C027
223,1000009771,PO Box 363,,Rock Springs,WY,82902,0363,638,B004
224,1000009836,2643 Burlingame Ave,,Clovis,CA,93611,6816,432,R014
225,1000009852,PO Box 306,,Ivoryton,CT,06442,0306,069,B003
226,1000009906,348 Rockmill St,,Delaware,OH,43015,5061,483,H050
227,1000009929,3053 Bright Skies,,San Antonio,TX,78261,2961,530,R204
228,1000009989,86 Pershing St,,East Providence,RI,02914,2119,867,C007
229,1000010054,2000 Skyline Dr,Apt 1215,McKinney,TX,75071,3156,159,R098
230,1000010101,6219 Mary Markley Hall,,Ann Arbor,MI,48109,2093,194,C072
231,1000010115,5061 Creston Valley Rd,,Paso Robles,CA,93446,9416,617,H067
232,1000010135,28340 Bohn St,,Roseville,MI,48066,2407,409,C094
233,1000010201,6287 N Brix Ave,,Fresno,CA,93722,3312,873,R021
234,1000010265,1236 Palmer Oak St,,Alamo,TX,78516,0619,368,R009
235,1000010284,603 S Park St,,Genoa,NE,68640,3013,036,R001
236,1000010297,749 W Main St,,Hamilton,MT,59840,2349,493,C001
237,1000010328,817 Duskywing Way,,Georgetown,TX,78626,3003,177,R073
238,1000010332,120 Riverside Blvd,Apt 8T,New York,NY,10069,0514,103,C096
239,1000010351,390 Cowan Rd,,Covington,GA,30016,7547,908,R005
240,1000010352,247 Miramar Ave,,San Francisco,CA,94112,1729,473,C054
241,1000010368,4704 Stableford Ct,,Fuquay Varina,NC,27526,8481,043,R007
242,1000010426,2040 Rusty Hinge Dr,,Colorado Springs,CO,80920,3820,404,R025
243,1000010435,8150 Point Meadows Dr,Apt 1411,Jacksonville,FL,32256,0609,610,C063
244,1000010464,PO Box 175392,,Arlington,TX,76003,5392,924,B045
245,1000010544,317 Natchez St,,Pittsburgh,PA,15211,1803,170,C037
246,1000010570,1481 220th Ave,,Lake Benton,MN,56149,4252,813,R052
247,1000010591,1110 Keene Cir,Apt 307,Fort Mill,SC,29715,6258,825,R054
248,1000010615,PO Box 576,,Carrizo Springs,TX,78834,6576,763,B005
249,1000010652,1 Saratoga Ln,,Danvers,MA,01923,6004,014,C013
250,1000010682,3401 Evanston Ave N,Ste C,Seattle,WA,98103,8677,759,C011
251,1000010695,200 Avenue K SE,Apt 413,Winter Haven,FL,33880,4102,137,C069
252,1000010739,14295 Bassett St,,Livonia,MI,48154,4746,953,C075
253,1000010766,PO Box 20829,,Oklahoma City,OK,73156,0829,298,B010
254,1000010837,134 Aspen Ln,,Emporium,PA,15834,4104,343,R001
255,1000010875,1040 Harvard Dr SE,,Warren,OH,44484,4811,408,C032
256,1000010903,349 Blacksmith Rd W,,Levittown,NY,11756,3119,493,C037
257,1000010915,608 W 4th St,,North Manchester,IN,46962,1423,085,C002
258,1000010970,327 Horn Ttu,,Lubbock,TX,79406,0001,274,C062
259,1000010990,435 E Magnolia Blvd,Apt D,Burbank,CA,91501,1929,760,C029
260,1000011009,1621 University Blvd E,,Tuscaloosa,AL,35404,2920,218,C059
261,1000011032,JA46 Calle 246,,Carolina,PR,00982,2759,468,C022
262,1000011037,PO Box 158,,Cable,WI,54821,0158,583,B002
263,1000011051,436 Hickory Ridge Rd,,Florence,MS,39073,8345,369,R003
264,1000011070,54 Riverneck Rd,,Chelmsford,MA,01824,2925,548,C017
265,1000011088,PO Box 1433,,Lacombe,LA,70445,1433,333,B013
266,1000011107,5468 Roundtree Pl,Apt L,Concord,CA,94521,3952,848,C029
267,1000011122,7615 Old Boonesboro Rd,,Winchester,KY,40391,8359,152,R004
268,1000011124,3206 W Barcelona St,Unit A,Tampa,FL,33629,7166,737,C037
269,1000011137,997 E 179th St,Apt 4F,Bronx,NY,10460,2255,465,C003
270,1000011163,10419 Mastin St,Apt C,Overland Park,KS,66212,5711,757,C032
271,1000011165,9 Sargent St,,White River Junction,VT,05001,8133,090,C002
272,1000011188,647 Town Mountain Rd,Apt 106,Asheville,NC,28804,3760,318,C001
273,1000011194,36631 S Silver Lake Rd,,Battle Lake,MN,56515,9106,318,R002
274,1000011242,100 Spring St,,Del Rio,TX,78840,5146,007,C022
275,1000011261,16830 Kingsbury St,Apt 107,Granada Hills,CA,91344,6413,320,C042
276,1000011361,PO Box 5476,,Pasadena,TX,77508,5476,768,B005
277,1000011468,450 Central Ave,Unit 6291,Albany,NY,12206,7213,664,C770
278,1000011546,8026 Darlington Dr,,Houston,TX,77028,2626,262,C004
279,1000011564,5125 Vine St,Apt 804,Lincoln,NE,68504,3383,046,C004
280,1000011584,38 Speedwell Baptist Church Rd,,Cullowhee,NC,28723,7055,380,H066
281,1000011645,PO Box 180176,,Casselberry,FL,32718,0176,762,B002
282,1000011813,420 Churchwell Dr,Unit 18471,Panama City Beach,FL,32417,7759,212,C770
283,1000011834,4113 Caligiuri Canyon Rd,,Vacaville,CA,95688,9038,130,R001
284,1000011854,PO Box 1457,,Marfa,TX,79843,1457,570,B012
285,1000011865,445 Central Ave,Apt A6,Orange,NJ,07050,2555,164,C007
286,1000011927,1526 1/2 Avenue D,,Fort Madison,IA,52627,2635,264,C004
287,1000012020,38 Swett Pl,,Oakland,ME,04963,4637,387,R004
288,1000012093,419 1/2 N High St,,Longview,TX,75601,6338,191,C001
289,1000012140,PO Box 7128,,Ocean View,HI,96737,7128,280,B021
290,1000012152,120 Twin Oaks Blvd,,Gaston,SC,29053,9647,203,R002
291,1000012189,816 Acoma St,Unit 914,Denver,CO,80204,4065,399,C037
292,1000012249,7600 Ora Glen Dr,Unit 1503,Greenbelt,MD,20768,7577,786,C770
293,1000012338,3104 46th Ave SE,,Mandan,ND,58554,4726,040,R007
294,1000012358,5150 Round Lake Rd,,Gladwin,MI,48624,9215,504,R004
295,1000012375,134 N 5th St,Apt 1,Indiana,PA,15701,1983,348,C003
296,1000012381,801 Croggan Cres,,Glen Burnie,MD,21060,8458,015,R005
297,1000012388,3120 Brown St,,New Castle,IN,47362,3632,202,C018
298,1000012434,6311 Sheri Dr NW,,Huntsville,AL,35806,1940,112,C043
299,1000012437,101 Boulevard,Apt 126,Pequannock,NJ,07440,1229,263,C002
300,1000012461,7390 S Creek Rd,Ste 202,Sandy,UT,84093,6123,527,C014
301,1000012533,2151 Oakland Rd,Spc 490,San Jose,CA,95131,1551,153,C003
302,1000012567,1014 N Monroe St,Apt 1,Tallahassee,FL,32303,6183,010,C008
303,1000012688,5500 El Camino Del Rey St,Apt 3707,Houston,TX,77081,1841,328,C015
304,1000012708,2730 Kelly St,,Hayward,CA,94541,3405,302,C044
305,1000012795,PO Box 41,,Bassett,WI,53101,0041,410,B001
306,1000012837,2700 Brookpark Rd,Trlr 101,Cleveland,OH,44134,1445,262,C014
307,1000012887,6344 N 8th St,Apt 108,Philadelphia,PA,19126,3754,336,C009
308,1000012909,118 E Main St,Ste D,Carrboro,NC,27510,2300,767,C004
309,1000012953,157 S Falcon St,,South Bend,IN,46619,1803,570,C008
310,1000013117,209 S Long St,Unit 668,East Spencer,NC,28039,9729,687,C770
311,1000013154,511 Saint Patty Dr,,Nottingham,PA,19362,3303,118,R003
312,1000013162,6602 Westin Dr,Apt 17,Madison,WI,53719,5705,170,R028
313,1000013185,29035 205th Ave,,Poteau,OK,74953,7157,354,R004
314,1000013219,120 Three Wood Ln,,Summerville,SC,29483,2943,204,C009
315,1000013272,1501 S Slappey Blvd,Unit 3361,Albany,GA,31706,7716,363,C770
316,1000013298,3875 E 57th St,,Cleveland,OH,44105,3344,750,C015
317,1000013322,3054 52nd St SW,,Naples,FL,34116,8124,541,C004
318,1000013533,106 Hilltop Dr,,Kennedale,TX,76060,2612,064,R003
319,1000013575,173 Savin Hill Ave,,Dorchester,MA,02125,1017,731,C004
320,1000013599,417 Avenue D,,Lexington,TX,78947,6043,174,R004
321,1000013655,2976 E Indianapolis Ave,,Fresno,CA,93726,2312,762,C002
322,1000013758,1185 Highway 25E S,,Tazewell,TN,37879,5748,859,R014
323,1000013763,225 Liberty St,Apt 105,Bloomfield,NJ,07003,3445,301,C001
324,1000013792,800 N Van Mar St,,Olathe,KS,66061,2834,004,C007
325,1000013837,1169 Loughborough Dr,,Merced,CA,95348,1816,997,C029
326,1000013864,5101 Champions Cir,,Franklin,TN,37064,2894,016,R044
327,1000013907,1300 N St NW,Apt 209,Washington,DC,20005,3689,593,C016
328,1000013957,434 W 120th St,Apt 10K,New York,NY,10027,6725,217,C025
329,1000013972,81 S 300 E,Unit 951,Roosevelt,UT,84066,6638,265,C770
330,1000014130,506 E Avenue D,,Newberry,MI,49868,1415,068,C002
331,1000014160,2950 Atoka Rd,,Marshall,VA,20115,3533,502,R004
332,1000014232,PO Box 1482,,Oneonta,NY,13820,5582,826,B012
333,1000014241,6310 Wirtz Rd,,Flowood,MS,39232,0017,102,R012
334,1000014263,95 Glendale Dr,,Mosheim,TN,37818,4060,959,R002
335,1000014290,PO Box 1481,,Exton,PA,19341,0109,813,B028
336,1000014451,339 Ash St,,Greenwood,NE,68366,2527,393,R777
337,1000014487,206 N Green St,Apt 455,Winston Salem,NC,27101,3158,057,C007
338,1000014497,516 Union Ave,,Laconia,NH,03246,2816,161,C009
339,1000014533,156 US Highway 46,Apt 10,Rockaway,NJ,07866,4041,103,C003
340,1000014549,108 Castleton Rd,,Florence,AL,35633,1737,084,C019
341,1000014579,955 Dorchester Way,Apt 908,Columbus,OH,43212,3946,330,C002
342,1000014580,2123 Tama Cir,Apt 202,Naples,FL,34112,7408,523,C066
343,1000014615,6500 Highway 544,,Myrtle Beach,SC,29588,9288,001,R063
344,1000014711,8414 Juniper Rd,,Ocala,FL,34480,8205,141,R063
345,1000014717,120 S Lakeline Blvd,Bldg 3-130,Cedar Park,TX,78613,2771,800,R046
346,1000014729,2407 Whittier Blvd,,Los Angeles,CA,90023,1341,070,C001
347,1000014836,4622 N Elkhart Ave,,Milwaukee,WI,53211,1013,229,C045
348,1000014906,50 Res Los Hucares II,Apt G1,Naguabo,PR,00718,2704,713,C003
349,1000014922,111 Hollis Ave,,Quincy,MA,02171,2315,116,C046
350,1000014994,4677 Mariner Blvd,,Spring Hill,FL,34609,1944,776,R094
351,1000015000,20 Emely St,,East Hartford,CT,06108,3917,203,C013
352,1000015111,8643 Sun Park Dr,,Zeeland,MI,49464,8315,439,R011
353,1000015146,PO Box 141,,Diamond,MO,64840,0141,417,B002
354,1000015203,PO Box 239,,Marmora,NJ,08223,0239,399,B004
355,1000015246,142 Country Club Rd,,Whiteville,NC,28472,9131,427,R011
356,1000015283,PO Box 510583,,Salt Lake City,UT,84151,0583,834,B001
357,1000015299,23856 Hunter Rd,,Meadville,PA,16335,9319,569,R001
358,1000015310,302 Martin Luther King Jr Dr,,La Marque,TX,77568,6221,024,C011
359,1000015317,1336 N Kingsley Dr,Apt 11,Los Angeles,CA,90027,5741,113,C026
360,1000015353,323 Putnam St,,Scranton,PA,18508,2723,239,C003
361,1000015382,2869 Rancho Rio Chico,,Carlsbad,CA,92009,3003,699,C034
362,1000015390,PO Box 495,,Oakwood,TX,75855,0495,958,B005
363,1000015468,20134 Leadwell St,Unit 146,Winnetka,CA,91306,4920,466,C024
364,1000015475,2502 Fruitvale Blvd,Apt 18,Yakima,WA,98902,7326,185,C002
365,1000015552,10 Coates St,,Bridgeport,PA,19405,1801,100,C002
366,1000015657,6892 Main St,Unit 1686,Gloucester,VA,23061,5770,117,C770
367,1000015704,6974 Garden Apartment 25,# 27,Ithaca,NY,14850,7074,743,C059
368,1000015803,801 S 52nd St,Apt 305,Omaha,NE,68106,1803,809,C009
369,1000015813,38 Parker Ave,,Massena,NY,13662,2215,381,C006
370,1000015852,106 N Milton Rd,,Saratoga Springs,NY,12866,6136,065,R007
371,1000015853,107 Mar Lyn Dr,,Gadsden,AL,35901,8853,071,R010
372,1000015855,323 Junipero Way,,San Luis Obispo,CA,93401,6800,234,C029
373,1000015934,25 Silver St,Apt 3,Bayonne,NJ,07002,4368,037,C005
374,1000016004,PO Box 803,,Arnold,MO,63010,0803,036,B008
375,1000016051,18748 Pacific Ave,,Sandy,OR,97055,8850,481,R009
376,1000016129,106 Withers St E,,La Fayette,GA,30728,2576,064,C002
377,1000016313,3833 Grouse Dr,,Concord,NC,28025,8340,332,R050
378,1000016435,104 Dartmouth St,Apt 2,Rochester,NY,14607,2889,023,C012
379,1000016457,3279 Jefferson Ave,,Ogden,UT,84403,0633,793,C047
380,1000016522,5 Heritage Dr,,Berkley,MA,02779,1621,050,R003
381,1000016567,PO Box 1315,,Biggs,CA,95917,1315,153,B012
382,1000016613,143 Walnut Strand,,Imperial,PA,15126,9645,434,R004
383,1000016642,501 Colorado St,Unit 7,Lawrence,KS,66044,6727,071,C003
384,1000016651,977 Mangrove Ave,Apt A,Sunnyvale,CA,94086,8923,731,C038
385,1000016892,2425 NW 54th St,,Oklahoma City,OK,73112,7758,252,C018
386,1000017003,380 Carl Holt Ln,,Decatur,TN,37322,5645,805,R001
387,1000017074,15550 S 292nd East Ave,,Coweta,OK,74429,4124,508,C001
388,1000017084,651 George St N,,Tarpon Springs,FL,34688,8612,518,R011
389,1000017087,81 Randolph St,Apt 1,Liberty,KY,42539,3304,016,R003
390,1000017096,1077 Peary Ct,,Livermore,CA,94550,5611,770,C067
391,1000017138,1401 N Taft St,Apt 711,Arlington,VA,22201,2647,860,C037
392,1000017164,238 Wards Rd,,Libby,MT,59923,9124,385,R001
393,1000017188,655 Congress St,Apt 408,Portland,ME,04101,1320,080,C003
394,1000017216,15000 Euclid Ave,Apt 30,Cleveland,OH,44112,3464,308,C028
395,1000017329,Unit 30307 Box 945R,,APO,AE,09107,0110,452,C110
396,1000017434,134 Jones St,,Gallatin,TN,37066,3304,341,C001
397,1000017513,1587 Old Brodhead Rd,,Monaca,PA,15061,2602,872,C012
398,1000017712,PO Box 1541,,Los Angeles,CA,90001,0541,415,B007
399,1000017829,901 Broadway,Unit 22893,Nashville,TN,37202,3869,181,C770
400,1000017830,455 E Pebble Rd,Unit 230744,Las Vegas,NV,89105,8030,943,C770
401,1000017881,4668 US Highway 278,,Emmet,AR,71835,8806,680,R020
402,1000017897,3993 Hartvickson Ln,,Valley Springs,CA,95252,9240,930,R001
403,1000017902,4 E Central St,Unit 2996,Worcester,MA,01613,4488,465,C770
404,1000018126,612 Avenue A,,El Campo,TX,77437,3302,121,C004
405,1000018161,3801 Wanda Lynn Dr,,Metairie,LA,70002,4525,014,C049
406,1000018185,5309 Murdock Ave,,Sarasota,FL,34231,2519,091,C043
407,1000018236,6003 Gloster Rd,,Bethesda,MD,20816,1147,037,C004
408,1000018305,5583 Paul Talbott Cir,,Grove City,OH,43123,9439,831,R012
409,1000018307,202 10th St,,Louisville,GA,30434,1424,023,C001
410,1000018329,300 E South St,Unit 442,Arlington,TX,76004,2819,175,C770
411,1000018333,504 Grand St,Apt F43,New York,NY,10002,4155,633,C025
412,1000018352,4458 George Washington Memorial Hwy,,Hayes,VA,23072,2836,584,R007
413,1000018504,102 Brittany Ln,,Senoia,GA,30276,1549,021,R011
414,1000018522,PO Box 8,,Union Hill,IL,60969,0008,084,B001
415,1000018559,83 Lovering Ave,Apt 2,Buffalo,NY,14216,2309,831,C034
416,1000018608,8208 Pine Rd,Apt B2,Philadelphia,PA,19111,1887,229,C050
417,1000018624,3532 Valley Dr,,Pittsburgh,PA,15234,2020,326,C050
418,1000018631,3640 Ocean Ave,,Seaford,NY,11783,3432,404,C012
419,1000018662,50 Pennell St,,Westbrook,ME,04092,3352,507,C015
420,1000018696,271 Wynnehaven Beach Rd,,Mary Esther,FL,32569,2727,719,R005
421,1000018721,114 Galigher St,,Zanesville,OH,43701,4028,146,C005
422,1000018731,20425 N 7th St,Apt 2003,Phoenix,AZ,85024,6008,034,H011
423,1000018739,3232 US Highway 41 N,,Chula,GA,31733,4100,323,R041
424,1000018819,1074 Hesselridge,,Hewitt,TX,76643,4400,745,R009
425,1000018843,1893 SE Cashmere St,,Port Orchard,WA,98367,7849,937,R020
426,1000018849,2734 Taylor St,Apt 2,Brownsville,TX,78520,6765,022,C005
427,1000018921,407 E 12th Ave,,Hutchinson,KS,67501,5823,076,C013
428,1000018984,5930 S Vickery,# Q,Cumming,GA,30040,0326,309,R029
429,1000018990,1883 Main St,Unit 6285,Springfield,MA,01101,7965,604,C770
430,1000019083,4901 Harford Rd,Unit 3676,Baltimore,MD,21214,7508,019,C770
431,1000019206,4725 Radford Ave,Apt 105,Valley Village,CA,91607,4142,303,C016
432,1000019217,4943 Los Reyes Dr,,Sierra Vista,AZ,85635,7106,432,C059
433,1000019284,834 Bullock Ave,,Lansdowne,PA,19050,3613,345,C055
434,1000019288,1487 Capp Springs Rd,,Benton,KY,42025,5962,870,R004
435,1000019293,35 W Main St,Unit 23,Frisco,CO,80443,6602,232,C770
436,1000019369,95 Half Mile Rd,,Darien,CT,06820,2107,950,C023
437,1000019397,5111 N Travis St,Apt 913,Sherman,TX,75092,4068,388,R006
438,1000019399,50 N Northwest Hwy,Unit 202,Park Ridge,IL,60068,3295,524,C003
439,1000019522,26406 Crocker Lndg,,Columbia Station,OH,44028,9199,068,R001
440,1000019566,32 Gage St,Apt 2,Methuen,MA,01844,6844,029,C029
441,1000019627,24609 NE 22nd St,,Redmond,WA,98074,3308,099,C051
442,1000019639,11 Plantation Rd,,Whitehouse Station,NJ,08889,3205,115,R007
443,1000019753,304 S Woodrum St,,Pearisburg,VA,24134,1742,048,C002
444,1000019792,10645 E Trimmier Rd,,Killeen,TX,76542,4926,456,R001
445,1000019808,1921B Alta Vista Dr,,Vista,CA,92084,6403,211,C065
446,1000019826,83 Marlborough St,,Boston,MA,02116,2025,993,C002
447,1000019830,10401 Old Georgetown Rd,Ste 359,Bethesda,MD,20814,0005,848,C001
448,1000019882,1946 Senate St,,Saint Louis,MO,63118,1764,995,C026
449,1000019889,PO Box 374521,,Decatur,GA,30037,4521,212,B041
450,1000019967,1234 McElderry St,Apt 208,Baltimore,MD,21202,5982,586,C051
451,1000020080,17717 Vail St,Apt 1814,Dallas,TX,75287,6444,643,R052
452,1000020092,501 E Oates Rd,Unit 493678,Garland,TX,75049,0011,030,C770
453,1000020113,2 Bluebell Ct,,Newtown,PA,18940,3207,024,C005
454,1000020123,33777 Shifting Sands Trl,Apt A,Cathedral City,CA,92234,9529,735,C048
455,1000020147,7915 Skyline Dr,,Houston,TX,77063,6123,159,C003
456,1000020194,PO Box 378,,Ceiba,PR,00735,0378,782,B004
457,1000020247,1814 S Rivista St,,Greenacres,WA,99016,7819,145,R010
458,1000020259,14216 US Highway 31,,Beulah,MI,49617,9379,168,R011
459,1000020273,15 E Market St,Unit 11,Leesburg,VA,20178,8002,110,C770
460,1000020278,181 N Park Ave,,Neenah,WI,54956,2956,810,C005
461,1000020292,8800 West Blvd,,Birmingham,AL,35206,2152,004,C012
462,1000020355,105 Court St,Unit 1382,Hamilton,OH,45012,9560,323,C770
463,1000020370,346 Ashford Cir,Unit 3,Bartlett,IL,60103,7466,034,R010
464,1000020451,4156 Somerset Dr NE,,Albany,OR,97322,4544,569,C038
465,1000020456,2125 Highland Ave,,Rochester,NY,14610,3013,254,C017
466,1000020630,7758 Chestnut Ave,,Hammond,IN,46324,3224,587,C058
467,1000020746,17 Lariat Ln,,Rolling Hills Estates,CA,90274,4119,175,C013
468,1000020784,PO Box 292,,Kirvin,TX,75848,0292,924,B002
469,1000020802,102 Ocean Breeze Cir,,Boynton Beach,FL,33435,3700,020,C047
470,1000020843,8524 Danforth Dr,,Windermere,FL,34786,9422,249,R025
471,1000020844,107 Fall Run Rd,Apt 233,Pittsburgh,PA,15221,3778,581,C025
472,1000020882,610 Isabelle St,,Memphis,TN,38122,3707,106,C094
473,1000020888,1033 Berry Branch Rd,,Mountain City,TN,37683,4326,332,R001
474,1000020919,81 Otis St,,West Babylon,NY,11704,1405,818,C062
475,1000020981,27590 Brush Ave,Apt 102,Euclid,OH,44132,3825,279,C015
476,1000020994,725 W Oak St,Apt 4,Louisville,KY,40203,3173,043,C003
477,1000021173,803 Center Ave,,Martinez,CA,94553,4646,031,C029
478,1000021194,416 Bradford Ln,,Oak Ridge,MO,63769,5382,164,R071
479,1000021347,6000 Sepulveda Blvd,Ste 1321,Culver City,CA,90230,6464,466,C024
480,1000021354,3986 Silver Hay Ln,,Jacksonville,FL,32217,3743,864,C047
481,1000021383,2 Cypress Ct,,Little Egg Harbor Twp,NJ,08087,4231,025,R022
482,1000021391,400 SW 1st Ave,Unit 3181,Ocala,FL,34478,7970,812,C770
483,1000021399,93 Calle 65 Infanteria,Unit 79,Anasco,PR,00610,3005,799,C770
484,1000021424,4133 E Busch Blvd,Apt 12,Tampa,FL,33617,5914,128,C031
485,1000021438,4031 Knowles Rd,,North Adams,MI,49262,9789,310,R061
486,1000021484,PO Box 47,,Georgiana,AL,36033,0047,473,B001
487,1000021486,141 County Road 741,,Riceville,TN,37370,5704,419,R004
488,1000021576,95 Crawford St,,Woonsocket,RI,02895,5322,950,C007
489,1000021581,31867 Shavox Rd,,Salisbury,MD,21804,1589,679,R003
490,1000021646,6112 Gossett Way,Apt B,Marysville,CA,95901,6347,745,C009
491,1000021676,1642 E Orangewood Ave,,Phoenix,AZ,85020,5219,422,C086
492,1000021725,209 S 47th Ave,,Yakima,WA,98908,3235,094,C006
493,1000021770,1145 Westminster St,Apt 201,Saint Paul,MN,55130,3664,511,C023
494,1000021801,29 Broad St,,Charleston,SC,29401,3044,995,C002
495,1000021809,10 Red Hill Rd,,Pipersville,PA,18947,9344,100,R001
496,1000021819,Unit 100429 Box 4070,,FPO,AP,96694,2940,704,C429
497,1000021851,7021 E 12th St,,Kansas City,MO,64126,2203,211,C004
498,1000021879,1206 Shady Glen Dr,,District Heights,MD,20747,1723,061,C011
499,1000021907,PO Box 327,,Alvord,TX,76225,0327,277,B004
500,1000021930,91 Woods Rd,,Hightstown,NJ,08520,2810,914,C013
501,1000021964,2135 Harry Lorenzo Ave,,Woodland,CA,95776,5484,357,R013
502,1000021983,11817 Brandon Rd,,Philadelphia,PA,19154,2524,179,C024
503,1000022025,404 Westlake Ct,,Niceville,FL,32578,4187,041,R014
504,1000022041,900 Moon Cir,Unit 917,Folsom,CA,95630,4136,427,R038
505,1000022050,3621 W Slaughter Ln,Apt 723,Austin,TX,78749,5915,988,C086
506,1000022132,1142 1/2 E 25th St,,Los Angeles,CA,90011,2383,427,C003
507,1000022179,17925 N Old Number 7,,Sturgeon,MO,65284,9520,252,R021
508,1000022200,PO Box 154,,Lake Como,PA,18437,0154,548,B002
509,1000022208,PO Box 278,,Rineyville,KY,40162,0278,785,B003
510,1000022246,950 SW 57th Ave,Apt 540,West Miami,FL,33144,5092,405,C039
511,1000022409,25 Rosedale St,Apt 11,North Providence,RI,02911,3153,113,C015
512,1000022432,119 Nunley Dr,,Charleston,WV,25306,6661,195,C061
513,1000022503,347 Old Toms River Rd,,Brick,NJ,08723,5905,470,C002
514,1000022550,1266 E 113th Ave,Apt N114,Tampa,FL,33612,1999,449,C027
515,1000022616,7141 Pacific Ave,,Stockton,CA,95207,1908,414,C016
516,1000022635,3358 County Road 4408,,Commerce,TX,75428,6736,589,R003
517,1000022778,PO Box 110196,,Lakewood Rch,FL,34211,0003,961,B003
518,1000022837,111 S Mill St,Unit 1014,Santa Paula,CA,93061,7045,645,C770
519,1000022849,4190 Orchard St,,Montclair,CA,91763,3019,902,C010
520,1000023084,22 S Prince St,,Shippensburg,PA,17257,1939,998,C003
521,1000023206,2213 N Keeler Ave,,Chicago,IL,60639,3605,138,C056
522,1000023225,PO Box 160,,Savoy,TX,75479,0160,605,B001
523,1000023246,75171 Mediterranean,,Palm Desert,CA,92211,9094,715,C050
524,1000023281,Unit 100284 Box 1381,,FPO,AE,09534,8413,814,C284
525,1000023437,PO Box 537,,Camas,WA,98607,0537,375,B003
526,1000023444,14 Blue Heron Ct,,Middle River,MD,21220,7518,147,R012
527,1000023498,1348 Harding St,,Seaside,CA,93955,5554,488,C005
528,1000023539,449 S 18th St,Apt 2,Newark,NJ,07103,4514,023,C075
529,1000023589,24 Veazie St,,North Adams,MA,01247,2316,248,C009
530,1000023677,12155 Ocotillo Rd,,Desert Hot Springs,CA,92240,3941,556,C007
531,1000023732,2682 McAlexander Fieldhouse,,Corvallis,OR,97331,8556,823,C020
532,1000023810,PO Box 394,,East Lynn,WV,25512,0394,946,B001
533,1000023916,101 6th Ave S,Unit 326,Seattle,WA,98104,2799,768,C067
534,1000023961,118 Nottingham Rd,,Pennsville,NJ,08070,3343,183,C007
535,1000024065,613 Bryant Ave,,Teaneck,NJ,07666,6501,139,C022
536,1000024067,151 W Superstition Blvd,Unit 1314,Apache Junction,AZ,85117,0856,397,C770
537,1000024201,PO Box 56,,Honesdale,PA,18431,0056,561,B001
538,1000024243,3439 Jordan Valley Rd,,Dallas,TX,75253,3402,397,R006
539,1000024272,14320 SW 286th St,,Homestead,FL,33033,1751,202,C030
540,1000024330,2701 Northern Dr,,League City,TX,77573,4828,018,C015
541,1000024387,8001 Luces Corta,,Bakersfield,CA,93309,2224,015,C013
542,1000024394,PO Box 56171,,Atlanta,GA,30343,0171,710,B002
543,1000024500,PO Box 18,,Mc Intyre,GA,31054,0018,189,B001
544,1000024591,PO Box 4035,,Philadelphia,PA,19118,8035,356,B101
545,1000024619,1301 4th Ave,Apt 1007,Seattle,WA,98101,2643,574,C027
546,1000024623,1804 Soaring Heights Cir,,Orlando,FL,32837,8082,045,C015
547,1000024748,3112 Linkshead Ct,,San Jose,CA,95148,3609,122,C010
548,1000024751,1001 S Troup St,,Valdosta,GA,31601,6390,010,C005
549,1000024786,18312 Senteno St,,Rowland Heights,CA,91748,4433,124,C055
550,1000024802,2846 Wildner Rd,,Sebewaing,MI,48759,9506,467,R002
551,1000024894,26 La Quinta Ln,,Lakewood,NJ,08701,3874,264,C050
552,1000024929,1910 Natchaug Dr,,Meriden,CT,06450,7421,100,C045
553,1000024931,2670 Bryant Dr,,Broomfield,CO,80020,7702,707,C020
554,1000024934,207 Ridgeway Ln,,Beeville,TX,78102,8701,079,H008
555,1000024962,1129 Lake St,,San Francisco,CA,94118,1124,298,C002
556,1000025007,5950 Rampolla Dr,,Las Vegas,NV,89141,0475,506,R071
557,1000025028,PO Box 817,,Horatio,AR,71842,0817,174,B007
558,1000025029,4700 S 700 W,,Westpoint,IN,47992,9210,007,R063
559,1000025032,1319 N 20th St,,Richmond,VA,23223,4338,190,C012
560,1000025043,3239 Ash Mill Rd,,Doylestown,PA,18902,1935,390,R006
561,1000025048,74722 W Rd,,Kearney,NE,68845,9209,225,R002
562,1000025075,1493 Osage St,Apt 574,Denver,CO,80204,2466,495,C023
563,1000025140,830 N Richman Ave,,Fullerton,CA,92832,1147,300,C013
564,1000025214,4900 Gage Ave,Apt 487,Fort Worth,TX,76109,1666,125,C028
565,1000025227,117 Heller Pkwy,,Newark,NJ,07104,2213,172,C045
566,1000025297,PO Box 328590,,Fort Lauderdale,FL,33332,9724,905,B024
567,1000025312,2044 N M 52,,Stockbridge,MI,49285,9626,441,R001
568,1000025331,1750 Saint Charles Ave,Apt 534,New Orleans,LA,70130,6718,340,C011
569,1000025408,1230 Sutter Ave,Apt 4C,Brooklyn,NY,11208,3813,436,C027
570,1000025442,1309 Ann St,,Winfield,KS,67156,5265,098,C003
571,1000025490,9878 Wilson Lab,,Ithaca,NY,14853,8001,785,C052
572,1000025501,2065 Mount Carmel Rd,,Newnan,GA,30263,4217,651,R007
573,1000025520,25505B Marion Ave,,Punta Gorda,FL,33950,4643,058,C054
574,1000025599,5910 Hunters Glen Dr,,Plainsboro,NJ,08536,2872,108,C003
575,1000025678,439 W 4th St,Unit 280,Lorain,OH,44052,5812,559,C770
576,1000025697,639 Apple Creek Rd,,Parker,SD,57053,5684,395,R006
577,1000025719,40 John Portman Blvd,Ste 856A,Atlanta,GA,30303,1155,612,C041
578,1000025720,185 E 31st St,Apt 5C,Paterson,NJ,07514,1475,538,C080
579,1000025738,4902 Mount Zion Rd,,Greenwood,AR,72936,8415,023,R001
580,1000025772,1387 Sierra Cir,,Kissimmee,FL,34744,3660,878,C022
581,1000025979,1202 E 30th St,,Austin,TX,78722,2340,023,C062
582,1000026002,422 W Riverview Ave,,Fort Morgan,CO,80701,2536,224,C004
583,1000026018,2909 9th St N,,Arlington,VA,22201,2059,098,C021
584,1000026059,31 the Cedars,,Trinity Center,CA,96091,8000,313,H002
585,1000026121,34 Delmont Ave,,Warminster,PA,18974,3779,348,C019
586,1000026123,21051 NW 82nd Ln,,Starke,FL,32091,8782,514,R002
587,1000026193,120 Jersey Ave,Ste 110,New Brunswick,NJ,08901,3290,350,C023
588,1000026288,103 Thayer St,Apt 42B,New York,NY,10040,1014,225,C015
589,1000026357,PO Box 1658,,Wimauma,FL,33598,1658,589,B017
590,1000026397,56262 N Fork Walla Walla River Rd,,Milton Freewater,OR,97862,7059,629,R001
591,1000026412,2105 Balboa Way,Unit 2,Saint George,UT,84770,8735,029,C009
592,1000026438,1324 Lodwick Dr,,Louisville,TN,37777,4725,245,R004
593,1000026447,684 Lucille Ave,,Painesville,OH,44077,2732,842,C003
594,1000026460,422 E Fountain Rd,Trlr 23,Joplin,MO,64801,9555,232,R012
595,1000026501,5700 Williamsburg Landing Dr,Apt 110,Williamsburg,VA,23185,3779,357,C009
596,1000026540,6817 Hillwood Dr,,Sachse,TX,75048,3580,172,R008
597,1000026551,2007 S Missouri Ct,,Claremore,OK,74019,3532,079,R022
598,1000026601,10750 W McDowell Rd,Ste E505,Avondale,AZ,85392,5970,552,C015
599,1000026624,501 E Central Texas Expy,Rm 209,Killeen,TX,76541,8987,591,C010
600,1000026632,72 Fairhaven St,,Manhattan,MT,59741,8163,727,R002
601,1000026643,811 N Spears St,Apt 102,Alvarado,TX,76009,3255,274,R012
602,1000026663,7418 Grayson Bridge Cir,,Douglasville,GA,30134,6477,186,R015
603,1000026699,124 Route 247,,Jermyn,PA,18433,3603,243,R002
604,1000026835,170 NE 2nd St,Unit 1655,Boca Raton,FL,33429,5071,051,C770
605,1000026838,7322 N Decatur Blvd,Unit 6,Las Vegas,NV,89131,2896,067,C092
606,1000026869,Cmr 405 Box 3616,,APO,AE,09034,0037,167,C037
607,1000026896,556 Thompson St,,Mc Farland,CA,93250,1641,568,R001
608,1000026923,7685 E Barataria Blvd,,Sierra Vista,AZ,85650,8478,856,R005
609,1000027111,26B Channing St,Apt 19,Worcester,MA,01605,3450,196,C019
610,1000027276,PO Box 391113,,Omaha,NE,68139,1113,133,B010
611,1000027277,1409 New York Ave,Apt 6D,Brooklyn,NY,11210,1729,646,C015
612,1000027338,70 Brookside Pl,,Springfield,IL,62704,5702,700,C064
613,1000027361,67 N 800 W,Unit 1852,Vernal,UT,84078,7766,520,C770
614,1000027366,807 Covey Ln,Apt 1,Coal City,IL,60416,2460,010,C004
615,1000027446,21427A Hillside Ave,,Queens Village,NY,11427,1807,270,C038
616,1000027455,15100 W 10 Mile Rd,Apt 326,Oak Park,MI,48237,1459,764,C030
617,1000027459,5169 Corey Rd,,Winterville,NC,28590,9703,692,R004
618,1000027461,1876 West Blvd,,Berkley,MI,48072,1754,769,C093
619,1000027482,3710 Kitsap Way,,Bremerton,WA,98312,2456,109,C031
620,1000027611,14821 S Camino Tierra Del Rio,,Sahuarita,AZ,85629,8989,213,R006
621,1000027622,1235 Toxic Chemical Lab,,Ithaca,NY,14853,7401,359,C052
622,1000027676,14410 Audubon Trce,Apt 1207,Tampa,FL,33613,2982,076,R085
623,1000027711,1628 23rd Ave,,Longview,WA,98632,3618,284,C006
624,1000027725,704 Windy Way,Unit 203,Newport News,VA,23602,5698,531,C052
625,1000027734,18351 Otter Ave,,Adelanto,CA,92301,3202,512,C002
626,1000027741,2477 Ridge View Ave,,Bullhead City,AZ,86429,7212,775,H065
627,1000027982,4253 Old National Pike,,Middletown,MD,21769,7701,992,R007
628,1000027989,3855 Blair Mill Rd,Apt 210D,Horsham,PA,19044,2911,045,C007
629,1000028022,1955 Mendocino Ln,,Altadena,CA,91001,2811,557,C040
630,1000028080,5132 State Route 5,,Newton Falls,OH,44444,9574,320,R002
631,1000028094,27202 Osprey Way,,Princeton Junction,NJ,08550,5466,029,R082
632,1000028107,2103 Cond Vista Real II,,Caguas,PR,00727,7809,037,C014
633,1000028112,135 Whittier Dr,Apt 4,El Paso,TX,79907,6078,043,C036
634,1000028150,31656 W Nine Dr,,Laguna Niguel,CA,92677,2955,567,C016
635,1000028176,8523 Thackery St,Apt 6201,Dallas,TX,75225,3915,515,C034
636,1000028194,14661 W Palomino Dr,,Southwest Ranches,FL,33330,2132,613,C023
637,1000028199,1009 Rutgers Dr,,Pflugerville,TX,78660,4732,098,R012
638,1000028209,521 Millgate Rd,,Bellefonte,PA,16823,8594,211,R011
639,1000028213,5168 Greene Ln,Apt D,Las Vegas,NV,89119,1766,769,C008
640,1000028456,8-10 Union Ave,Apt G5,Norwalk,CT,06851,3715,752,C018
641,1000028476,2619 Big Rock Rd,,Two Harbors,MN,55616,1490,193,R001
642,1000028518,608 S Montgomery Ave,,Sheffield,AL,35660,3810,080,C008
643,1000028535,37916 Ashbrook Rd,,Dade City,FL,33523,7004,166,R006
644,1000028549,360 Washington St NE,,Warren,OH,44483,4929,607,C062
645,1000028582,2080 23rd St,Unit 6362,San Pablo,CA,94806,5520,876,C770
646,1000028686,297 Andria Dr,,Stateline,NV,89449,9863,974,R777
647,1000028726,113 Holmes Way,,Schaumburg,IL,60193,5737,135,C041
648,1000028755,242 River Dr,,Moriches,NY,11955,1736,426,R002
649,1000028761,56 Presidential Way,,Brownsburg,IN,46112,8228,565,R004
650,1000028766,620 Wild Cherry Ln,,Naperville,IL,60540,6245,206,C037
651,1000028885,3814 Mark Twain Cir,,Chattanooga,TN,37406,2748,144,C006
652,1000028923,7372 Birdview Ave,,Malibu,CA,90265,4113,720,C103
653,1000028941,2777 Glenn Ave,,Los Angeles,CA,90023,2755,773,C017
654,1000028962,600 Windsor Pl,Apt 203,Jacksonville,NC,28546,6693,533,C044
655,1000029115,371 Humboldt St,Apt 409,Brooklyn,NY,11211,2990,095,C022
656,1000029184,2128 SW Freund St,,Oak Harbor,WA,98277,8466,283,R008
657,1000029223,80 Valley Rd,,Bishop,CA,93514,7432,804,H078
658,1000029225,233 W Main St,Apt 3,Falconer,NY,14733,1656,031,C001
659,1000029326,702 Meadowbrook Dr,Apt 5,Orange Park,FL,32073,8800,054,C032
660,1000029471,1320 Truemper St,Unit 367999,Jbsa Lackland,TX,78236,6388,991,C098
661,1000029477,66 Lenox Ave,Apt 1,Westbury,NY,11590,4493,013,C024
662,1000029514,43269 Hill Head Pl,,Leesburg,VA,20176,3903,694,R017
663,1000029609,185 N Water St,,Pinconning,MI,48650,9707,851,R004
664,1000029613,5479 Eaker Ln SW,,Bolling Afb,DC,20032,7664,992,C064
665,1000029620,4621 S Meridian,Ste A823,Puyallup,WA,98373,3455,139,C032
666,1000029621,900 E Fayette St,Unit 1993,Baltimore,MD,21203,7586,934,C770
667,1000029638,5850 W 55th St,Apt 3K,Chicago,IL,60638,2768,518,C019
668,1000029674,802 W Madison St,,Knoxville,IA,50138,2948,028,C002
669,1000029680,1660 Volney Rd,,Youngstown,OH,44511,1426,606,C062
670,1000029721,12612 Road 8,,Cecil,OH,45821,9342,129,R081
671,1000029782,14 Buttonwood Pl,,Upper Saddle River,NJ,07458,1713,149,C008
672,1000029890,2906 Observatory Ave,,Cincinnati,OH,45208,2307,063,C004
673,1000029971,5377 Serenity Woods Dr,,Willis,TX,77378,6023,773,R005
674,1000030001,9909 Richlyn Dr,,Perry Hall,MD,21128,9540,099,R652
675,1000030054,5653 Meadowick Ln,,Dallas,TX,75227,1525,536,C020
676,1000030074,108 Cauthen Cir,,Roanoke,AL,36274,5352,085,R005
677,1000030089,6611 Colleyville Blvd,,Colleyville,TX,76034,6233,114,R002
678,1000030115,1440 Old Earnhardt Rd,,Kannapolis,NC,28083,6586,400,R015
679,1000030157,5044 Market St,Apt 2,Philadelphia,PA,19139,3661,029,C048
680,1000030259,3954 Cloverlawn Ave,,Ypsilanti,MI,48197,8611,546,R007
681,1000030320,1A Myrtle Ave,Apt 2,Danbury,CT,06810,5322,012,C071
682,1000030331,PO Box 1069,,Atlanta,TX,75551,1069,696,B019
683,1000030357,383 Poliquin Dr,Apt 304,Conway,NH,03818,5817,793,R003
684,1000030364,119 Park Trace Blvd,,Osprey,FL,34229,6803,193,R005
685,1000030372,1289 Lilac St,,Murray,IA,50174,8004,894,R301
686,1000030384,PO Box 14232,,Jacksonville,FL,32238,1232,329,B011
687,1000030391,5659 Berkshire Dr,,Los Angeles,CA,90032,1321,595,C034
688,1000030395,396 Jefferson Ave,,Brooklyn,NY,11221,1002,965,C011
689,1000030418,PO Box 5260,,Mooresville,NC,28117,5260,602,B020
690,1000030585,605 Sherringfield Ter,,Chesapeake,VA,23322,9154,054,R026
691,1000030599,135 E Milton St,,Freeport,NY,11520,2317,350,C004
692,1000030612,10410 Isaacson Ave,,Hastings,FL,32145,9273,103,R002
693,1000030616,PO Box 715,,Rancho Mirage,CA,92270,0715,151,B006
694,1000030662,15 Maple Pl,,Middletown,CT,06457,3818,152,C009
695,1000030711,1921 32nd St NE,,Anamoose,ND,58710,9431,219,R004
696,1000030729,5200 Three Village Dr,Apt 1J,Cleveland,OH,44124,3778,109,C027
697,1000030868,12 Derickson Dr,,Wilmington,DE,19808,1901,120,C037
698,1000030882,1119 Court St,,Syracuse,NY,13208,1710,197,C015
699,1000030898,443214 E 1007 Rd,,Gore,OK,74435,5238,144,R003
700,1000030935,1273 Commercial St,,Pittsburgh,PA,15218,1101,730,C077
701,1000030943,35 Park Pl,Unit 35,Branford,CT,06405,7002,358,C770
702,1000030944,PO Box 547,,Susanville,CA,96130,0547,474,B005
703,1000030981,9442 Nautilus Dr,,Huntington Beach,CA,92646,4712,423,C055
704,1000030993,2953 Saint Anthony Rd,,Celina,OH,45822,9231,536,R005
705,1000030999,600 Lincoln Rd,,Grosse Pointe,MI,48230,1220,008,C055
706,1000031009,34 State St,,Mount Morris,NY,14510,1147,349,C001
707,1000031017,PO Box 43,,Banks,AR,71631,0043,438,B001
708,1000031022,5663 University Blvd SE,,Albuquerque,NM,87106,9701,632,R139
709,1000031077,5333 Hollister Ave,Ste 295,Santa Barbara,CA,93111,2474,701,C051
710,1000031134,516 Briarfield Dr,,Chesapeake,VA,23322,5654,161,C004
711,1000031177,2425 N Clybourn Ave,,Chicago,IL,60614,8459,999,C065
712,1000031186,18390 Signature Way,,Ruther Glen,VA,22546,2973,901,R013
713,1000031192,19 Chase St,Apt 4,Claremont,NH,03743,3238,043,C006
714,1000031206,671 Cottonwood Ct,,West Fargo,ND,58078,3144,712,C005
715,1000031251,6904 Resolute Rd,,Knoxville,TN,37918,9764,042,R097
716,1000031279,PO Box 728,,Osburn,ID,83849,0728,281,B015
717,1000031321,8105 Stream Ridge Rd,,Pensacola,FL,32526,7869,057,R008
718,1000031355,1908 Sanford St,,Saginaw,MI,48601,7504,087,C025
719,1000031358,1419 Jesup Ave,Apt 4I,Bronx,NY,10452,1994,492,C007
720,1000031399,3503 87th Ave SE,,Snohomish,WA,98290,5303,038,R031
721,1000031431,520 NW 120th Dr,,Coral Springs,FL,33071,4024,204,C002
722,1000031464,701 Church St,,Hobson City,AL,36201,7417,018,C006
723,1000031498,PO Box 523,,Waco,NC,28169,0523,239,B005
724,1000031505,1124 S 2nd St,,Raton,NM,87740,2306,247,C003
725,1000031509,25400 Catalina St,,Southfield,MI,48075,1791,008,C001
726,1000031625,52 Crawford St,Apt 2,Newark,NJ,07102,1121,528,C012
727,1000031664,18690 NW 37th Ave,Unit 551710,Miami Gardens,FL,33055,0039,354,C770
728,1000031668,18 W 9th St,Ste 1,Cincinnati,OH,45202,2037,014,C050
729,1000031690,766 Hudspeth St,,Simi Valley,CA,93065,5506,669,C014
730,1000031723,PO Box 1465,,Santa Fe,NM,87504,1465,659,B011
731,1000031784,315 S Bliss Ave,Unit 1828,Dumas,TX,79029,3920,531,C770
732,1000031945,801 S Rodney Parham Rd,Apt 12C,Little Rock,AR,72205,4870,230,C045
733,1000032036,1308 Willow Ave,Apt A210,Elkins Park,PA,19027,3123,101,C023
734,1000032069,32 Luffing Ct,,Essex,MD,21221,2935,328,C041
735,1000032073,18914 Rosewood Trl,,Tomball,TX,77377,3561,149,R001
736,1000032197,7543 E State Highway 294,,Elkhart,TX,75839,3155,437,R002
737,1000032274,2415 24th St,,Sacramento,CA,95818,2512,153,C032
738,1000032295,351 Pacer Crossings,,Aiken,SC,29801,5334,519,C011
739,1000032324,4100 Green Meadows Blvd,Apt 12,Ypsilanti,MI,48197,7207,122,C001
740,1000032403,18 Roosevelt Ave,,Fanwood,NJ,07023,1739,189,C006
741,1000032407,1049 Mohr Ln,,Concord,CA,94518,4312,995,C058
742,1000032417,5305 Baby Fawn Rd,,Moncks Corner,SC,29461,9107,056,H070
743,1000032445,PO Box 536,,Fruitland,ID,83619,0536,360,B007
744,1000032456,PO Box 1206,,Highland Lakes,NJ,07422,4206,067,B011
745,1000032534,1013 West St,Apt 304,Utica,NY,13501,3653,797,C098
746,1000032590,421 A St,,Smith Center,KS,66967,1803,211,C001
747,1000032623,7525 Handley Dr,,Port Richey,FL,34668,3916,257,C056
748,1000032744,276 Cascadilla Hall,,Ithaca,NY,14853,2301,760,C053
749,1000032752,10279 Janell Dr,,Keithville,LA,71047,8077,793,R006
750,1000032836,163 Moye Ct,,Rocky Mount,NC,27803,1439,634,C012
751,1000032845,PO Box 94,,Winfred,SD,57076,0094,949,B001
752,1000032956,PO Box 25717,,Fayetteville,NC,28314,5011,177,B002
753,1000033087,810 N 47th St,,Omaha,NE,68132,2514,107,C052
754,1000033122,5898 Lee Rd S,Apt 210,Maple Heights,OH,44137,4063,602,C029
755,1000033195,1624 Lake Heron Dr,,Lutz,FL,33549,8769,240,R015
756,1000033282,3724 Canoe Ln,,Louisville,KY,40207,1405,241,C044
757,1000033314,8305 Tiaga Trl,,Colorado Springs,CO,80919,4530,056,R068
758,1000033369,15 Nicholas Dr S,,Tonawanda,NY,14150,6109,157,C009
759,1000033429,7209 267th St NW,,Stanwood,WA,98292,6237,093,R026
760,1000033453,2336 Millbrook Ct,,Rochester Hills,MI,48306,3143,369,C050
761,1000033462,1699 S Gay Ave,Apt 303A,Panama City,FL,32404,8852,310,C004
762,1000033467,N4778 State Road 32,,Sheboygan Falls,WI,53085,2713,781,R002
763,1000033486,250 S Service Rd,Ste A100,Roslyn Heights,NY,11577,2139,103,C012
764,1000033559,900 Cinema Dr,Apt 2333,Hudson Oaks,TX,76087,2251,831,R032
765,1000033571,2154 Huffman Blvd,,Rockford,IL,61103,3946,548,C018
766,1000033638,4422 Chulita St,,San Antonio,TX,78237,2626,223,C066
767,1000033657,3291 Springnite Dr,,Colorado Springs,CO,80916,3540,914,C022
768,1000033751,493 Willow St,,Meadville,PA,16335,2875,992,C014
769,1000033820,111 Heather Ln,,Scottsville,NY,14546,1220,113,C001
770,1000033852,1085 Stockton St,,Aiken,SC,29801,5366,857,R021
771,1000033862,1801 N Econlockhatchee Trl,Unit 677967,Orlando,FL,32867,2547,925,C770
772,1000033871,303 W McArthur Ave,,Artesia,NM,88210,2821,035,C002
773,1000033892,1165 2nd Ave,Unit 8045,Des Moines,IA,50301,8503,203,C770
774,1000033969,13706 Nutmeg Cir NW,,Mogadore,OH,44260,9208,069,R003
775,1000033999,1057 Linden St,Apt 2,Sharon,PA,16146,3645,022,C033
776,1000034018,1028 289th Ave NE,,Carnation,WA,98014,9621,280,R002
777,1000034045,509 Lincoln Trail Rd,,Homer,IL,61849,9772,098,R041
778,1000034086,713 Pelican Ave,,New Orleans,LA,70114,1141,136,C006
779,1000034119,12500 Pousson Rd,,Iowa,LA,70647,6512,002,R005
780,1000034126,507 Stewart St,,Goodview,VA,24095,2235,071,R001
781,1000034206,8600 14th St W,,Rock Island,IL,61201,7688,993,R001
782,1000034257,2837 Galloping Hills Rd,,Chino Hills,CA,91709,5150,373,R077
783,1000034284,5747 Sadler Cir,Apt 2251,Dallas,TX,75235,6616,513,C018
784,1000034342,9761 Mann Library,,Ithaca,NY,14853,4301,614,C052
785,1000034371,2569 SE Spring Creek Rd,,Port Orchard,WA,98367,8152,696,R020
786,1000034388,420 S Richland Creek Dr,,Princeton,IN,47670,9570,203,R004
787,1000034425,9885 Mesa Rim Rd,Ste 122,San Diego,CA,92121,2983,472,C026
788,1000034451,PO Box 4130,,Hempstead,NY,11551,4130,306,B031
789,1000034573,21 Pondview Ave,,Mashpee,MA,02649,2809,217,R008
790,1000034598,213 Thue Ct,,Horace,ND,58047,4303,132,R003
791,1000034667,4701 Woodard Ln,,Frisco,TX,75036,7689,018,R110
792,1000034887,984 Hancock Ave,Apt 3,West Hollywood,CA,90069,4013,035,C007
793,1000034895,3680 Pacific Ave,Unit 9503,Ogden,UT,84409,5052,788,C770
794,1000034898,26654 Humber St,,Huntington Woods,MI,48070,1224,543,C005
795,1000034927,470 Whitney Rd,,Penfield,NY,14526,2326,702,C006
796,1000034966,1329 Pinecrest Rd,,Jacksboro,TN,37757,3207,298,R002
797,1000034969,10 Kent Rd,,Westminster,MA,01473,1623,102,R002
798,1000034985,16543 N 151st Ct,,Surprise,AZ,85374,1480,433,R024
799,1000035055,2201 Northbrook Dr,,Gretna,LA,70056,4508,014,C042
800,1000035063,1663 Thoms Dr NW,,Atlanta,GA,30318,6451,630,C017
801,1000035075,3724 Shults Hall,,Alfred,NY,14802,1117,249,C098
802,1000035092,108 Lynns Hill Rd,,Tafton,PA,18464,7752,088,H001
803,1000035141,3222 Sherry Ct,,Falls Church,VA,22042,3720,224,C031
804,1000035147,233 Lee,Unit 144,Alexander City,AL,35011,5005,442,C770
805,1000035231,7240 Vassar Ave,Apt 24,Canoga Park,CA,91303,1280,247,C007
806,1000035255,4179 Columbia Rd,Apt 109,North Olmsted,OH,44070,2075,344,C031
807,1000035266,2497 Weymouth Ttu,,Lubbock,TX,79406,0008,970,C062
808,1000035305,169 N Canyon Blvd,,Monrovia,CA,91016,2316,696,C035
809,1000035307,506 W Michigan Ave,,Urbana,IL,61801,4950,060,C014
810,1000035313,1805 Kimberly Jeanne Cir,Apt 1911,Apopka,FL,32703,3488,868,C020
811,1000035327,3677 41st St,Apt 11,San Diego,CA,92105,3350,110,C032
812,1000035342,118 N 12th Ave,,Edinburg,TX,78541,3502,186,C004
813,1000035557,612 N Cumberland St,,Lebanon,TN,37087,2310,126,C011
814,1000035637,10190 Sweetgrass Cir,Unit 110,Naples,FL,34104,0946,351,C019
815,1000035710,1085 Parrish Barrett Cir,,Bronson,TX,75930,5807,853,R002
816,1000035822,PO Box 64,,Northbridge,MA,01534,0064,647,B001
817,1000035830,301 Mission Dr,Unit 708,New Smyrna Beach,FL,32170,7030,836,C770
818,1000035846,107 East Ave,,Eagle Bay,NY,13331,1710,073,R777
819,1000035903,PO Box 2619,,Georgetown,SC,29442,2619,191,B026
820,1000035928,5277 State Highway 49 N,Spc 82,Mariposa,CA,95338,9571,820,H007
821,1000035951,1080 Apollo Dr,Unit 390091,Jbsa Lackland,TX,78236,9000,915,C095
822,1000035995,5753 County Road 30,,Mount Gilead,OH,43338,9701,534,R001
823,1000036004,7436 Brecourt Manor Way,,Austin,TX,78739,2228,363,R046
824,1000036105,122 S Mayflower Ave,Apt C,Monrovia,CA,91016,2699,755,C030
825,1000036178,12062 Cholla Rd,,Fishers,IN,46037,7976,623,R006
826,1000036279,2352 Shell Point Rd SW,,Shallotte,NC,28470,5829,528,R003
827,1000036295,8680 E Alameda Ave,Apt 1609,Denver,CO,80247,1114,093,C054
828,1000036358,37 Traditional Ln,,Albany,NY,12211,1951,377,C041
829,1000036429,28 Heathcote Rd,,Lindenhurst,NY,11757,1619,282,C021
830,1000036447,28265 Nick Davis Rd,,Harvest,AL,35749,7005,659,R010
831,1000036464,1335 Pacific Ave,Apt 419,San Francisco,CA,94109,2754,199,C030
832,1000036466,42 Greene Park Rd,,Ennice,NC,28623,9045,425,R082
833,1000036514,4132 Hearthside Dr,Apt 101,Wilmington,NC,28412,8384,262,C093
834,1000036526,1800 N Logan St,Apt 309,Denver,CO,80203,4375,846,C051
835,1000036572,2106 Cambridge St,,Cape Girardeau,MO,63701,2500,060,C014
836,1000036574,PO Box 721792,,Orlando,FL,32872,1792,928,B016
837,1000036657,8112 Haning Hall,,Athens,OH,45701,1360,120,C000
838,1000036727,98 Remington Dr,,Eagle Pass,TX,78852,2421,984,H001
839,1000036769,100 Hines Ave,,Mount Airy,NC,27030,3767,005,C012
840,1000036786,23204 Governor Harrison Pkwy,,Freeman,VA,23856,2353,049,R081
841,1000036805,PO Box 476,,Vanderbilt,TX,77991,0476,767,B004
842,1000036813,65 N Main St,Unit 812,Tooele,UT,84074,6232,121,C770
843,1000036874,1211 N 16th St,,Bismarck,ND,58501,2804,115,C012
844,1000037008,701 S River St,,Spooner,WI,54801,9692,015,R003
845,1000037077,3973 Kay Hall,,Ithaca,NY,14853,1402,732,C053
846,1000037089,8165 Lee Road 390,,Opelika,AL,36804,5508,650,R004
847,1000037209,426 Wyoming Ave,,Fairfield,OH,45014,1660,265,C057
848,1000037311,1624 N 24th Pl,,Milwaukee,WI,53205,1402,242,C037
849,1000037332,2439 County Road A,,Stoughton,WI,53589,4231,398,R002
850,1000037432,2057 Lantana Ln,,Clover,SC,29710,9253,570,R015
851,1000037441,362 Longhorn Dr,,Fayetteville,NC,28303,3175,620,C050
852,1000037503,2049 Minnekahta Ave,,Hot Springs,SD,57747,1502,499,C002
853,1000037802,4 Daniel Dr,,Middleboro,MA,02346,2927,041,R007
854,1000037836,53 Road 3,,Piscataway,NJ,08854,8052,532,C080
855,1000037870,3536 N 49th St,,Milwaukee,WI,53216,2909,364,C021
856,1000038045,Unit 200279 Box 59,,FPO,AE,09502,7900,594,C279
857,1000038062,12 SE 56th St,,Oklahoma City,OK,73129,3610,125,C062
858,1000038119,142 Cady St,,Ludlow,MA,01056,2200,428,C006
859,1000038135,90 Roosevelt Ave,,Montgomery,NY,12549,1608,905,C002
860,1000038167,860 Mlk Ct,Apt 612,Kountze,TX,77625,2018,624,R092
861,1000038168,17101 NW 45th Ct,,Miami Gardens,FL,33055,4357,014,C033
862,1000038196,52 Madison Ave,,Avenel,NJ,07001,1446,520,C006
863,1000038208,4640 Templeton Park Cir,,Colorado Springs,CO,80917,4539,996,C085
864,1000038230,9007 Greiner Dr,,Houston,TX,77080,3008,070,C010
865,1000038253,18722 Wingfield Ct,,Brookeville,MD,20833,2646,222,R006
866,1000038259,6818 Ilex St,,Houston,TX,77087,1608,187,C017
867,1000038333,908 NW Calista Dr,,Grimes,IA,50111,4780,085,R005
868,1000038375,PO Box 521,,Saranac,MI,48881,0521,210,B005
869,1000038409,511 S Park Rd,Apt 302,Spokane Valley,WA,99212,0558,775,C042
870,1000038477,216 E Vine St,Apt 2,Salisbury,MD,21804,5535,025,C028
871,1000038596,PO Box 203,,Coden,AL,36523,0203,033,B002
872,1000038608,PO Box 151,,Naples,NY,14512,0151,514,B003
873,1000038609,622 Trollwood Dr,,Albert Lea,MN,56007,4390,222,R001
874,1000038669,1908 Canterbury Ln,Unit 7,Sun City Center,FL,33573,5646,071,C051
875,1000038716,27 E Doris Ave,Apt 505,Jacksonville,NC,28540,5115,306,C001
876,1000038748,181 Bayfront Dr,Unit 324,Mount Pleasant,SC,29464,1852,991,C014
877,1000038784,PO Box 24,,West Elizabeth,PA,15088,0024,246,B001
878,1000038790,5700 S Agnew Ave,Apt 126,Oklahoma City,OK,73119,6637,269,C021
879,1000038808,PO Box 191932,,Miami Beach,FL,33119,1932,323,B026
880,1000038832,346 E Century St,,Belle Plaine,MN,56011,2084,463,R004
881,1000038904,808 5th St,,Coralville,IA,52241,2321,990,C063
882,1000038924,614 Rocking Chair Ln,,Oldtown,ID,83822,9508,140,R004
883,1000038973,4501 Emerald Forest Dr,Apt M,Durham,NC,27713,2134,857,C019
884,1000039014,PO Box 913,,Pendleton,OR,97801,0913,138,B008
885,1000039034,145 N Milwaukee Ave,Apt 5011,Vernon Hills,IL,60061,4179,619,R012
886,1000039050,206 Cascade View Ct,,East Wenatchee,WA,98802,9595,069,R010
887,1000039159,400 5th Ave,Unit 780,Quantico,VA,22134,3138,805,C770
888,1000039160,382 E Cascade Ave,,River Falls,WI,54022,5098,825,C050
889,1000039178,PO Box 345,,Oneill,NE,68763,0345,459,B001
890,1000039212,PO Box 96,,North East,MD,21901,0096,967,B001
891,1000039222,130 Lee Road 212,,Phenix City,AL,36870,8453,303,R009
892,1000039246,801 W Golf Course Dr,,Chelan,WA,98816,9577,019,H080
893,1000039396,235 Sycamore Ct,,Lumberton,TX,77657,1314,351,R038
894,1000039399,3650 Bpo Way,,Piscataway,NJ,08854,8311,507,C080
895,1000039466,11700 W Jackson St,,Yorktown,IN,47396,9424,002,R001
896,1000039471,11 Cottage Ln,,Aliso Viejo,CA,92656,4201,113,C036
897,1000039492,3247 Montrose Tpke,,Owego,NY,13827,6925,476,H064
898,1000039506,9124 Integra Meadows Dr,Apt 301,Davenport,FL,33896,7911,760,R040
899,1000039511,3118 Windchase Blvd,,Houston,TX,77082,3406,184,C018
900,1000039612,433 Park Ave,,Brooklyn,NY,11205,2735,338,C001
901,1000039642,PO Box 428,,Eldorado Springs,CO,80025,0428,281,B001
902,1000039680,PO Box 59,,Woodbury,GA,30293,0059,595,B001
903,1000039756,2323 City Gate Dr,Unit 361021,Columbus,OH,43236,5027,710,C770
904,1000039758,303 58th St,Apt 8,West New York,NJ,07093,5924,083,C021
905,1000039774,4619 W 34th St,Apt 204,Houston,TX,77092,5993,540,C006
906,1000039797,1400 Macdade Blvd,Apt C140,Woodlyn,PA,19094,1512,305,C003
907,1000039800,740 W Oak St,,Palmyra,PA,17078,2246,409,C004
908,1000039909,3104 E Admiral Pl,,Tulsa,OK,74110,5505,048,C033
909,1000039911,29980 State Highway 3 NE,,Poulsbo,WA,98370,9387,808,R004
910,1000039922,1031 Cheekwood Ct,,Elk Grove Village,IL,60007,3785,996,C022
911,1000039975,9 Florida St,,Wheeling,WV,26003,2013,094,C012
912,1000039981,1405 Winged Foot Dr,,Niceville,FL,32578,4312,050,R003
913,1000039987,PO Box 1349,,Granite City,IL,62040,1349,498,B010
914,1000040024,630 Texas Central Pkwy,Unit 106,Waco,TX,76712,6591,312,R031
915,1000040116,1289 S Cheyenne Rd,Apt 5109,Sapulpa,OK,74066,6297,841,R011
916,1000040176,571 Main St,Apt 1,Old Town,ME,04468,1916,713,C003
917,1000040194,31 E Center St,Apt 304,Fayetteville,AR,72701,5339,797,C005
918,1000040213,7313 Edlane Rd,,Clay,MI,48001,3015,134,R005
919,1000040225,642 Foxfield Rd,,Oregon,WI,53575,3278,429,C004
920,1000040240,6380 Cliffdale Rd,Unit 26955,Fayetteville,NC,28314,3058,303,C770
921,1000040249,14347 Spanish Point Dr,,El Paso,TX,79938,5383,474,R031
922,1000040294,PO Box 1165,,McPherson,KS,67460,1165,653,B014
923,1000040312,613 SW 2nd St,,Belle Glade,FL,33430,3905,136,C009
924,1000040334,3851 Sugarloaf Pkwy,,Frederick,MD,21704,7885,512,R028
925,1000040360,1423 County Road 502,,Mountain Home,AR,72653,4854,231,R001
926,1000040402,PO Box 1375,,Rowland,NC,28383,1375,758,B009
927,1000040508,515 Clinton St,Apt 504,Buffalo,NY,14204,1875,297,C003
928,1000040510,12052 Tift Cir,,Orlando,FL,32826,3662,525,C070
929,1000040605,3507 Palmilla Dr,Unit 1138,San Jose,CA,95134,2230,885,C001
930,1000040623,2382 NW 73rd Ter,Apt 202,Miami,FL,33147,6271,529,C008
931,1000040624,4189 Harrogate Dr NW,,Atlanta,GA,30327,3624,893,C016
932,1000040725,500 S Clinton St,Apt 602,Chicago,IL,60607,4342,521,C003
933,1000040773,427 Xenia St SE,Apt 104,Washington,DC,20032,3724,296,C056
934,1000040802,101 W Goodwin St,Unit 2660,Prescott,AZ,86302,6121,605,C770
935,1000040844,PO Box 153,,Wanette,OK,74878,0153,539,B002
936,1000040857,151 Bristol Way,,Richmond Hill,GA,31324,4288,519,R011
937,1000040955,6531 Bennington Ave,,Kansas City,MO,64133,4643,312,R002
938,1000040970,33 Maple Ave,,Bloomfield,CT,06002,2334,334,R001
939,1000041025,3121 42nd St,Ste Mgmt,Astoria,NY,11103,3106,923,C001
940,1000041028,1841 Baldwin Mill Rd,,Forest Hill,MD,21050,2019,415,R003
941,1000041039,5610 Woodview Ave,,Austin,TX,78756,1026,107,C036
942,1000041046,Unit 200222 Box 280,,FPO,AP,96602,2202,803,C222
943,1000041084,139 Calle Rodriguez Oquendo,,Carolina,PR,00985,5939,390,C023
944,1000041263,4617 Stevens Dr,,Pine Bluff,AR,71603,7303,172,C047
945,1000041265,11732 County Road 99,,Findlay,OH,45840,9601,328,R007
946,1000041289,6156 Highland Hills Dr,Apt 214,Dallas,TX,75241,5103,642,C039
947,1000041387,223 Union St,,Rocky Mount,NC,27803,4338,237,C033
948,1000041423,PO Box 446,,Valleyford,WA,99036,0446,469,B006
949,1000041425,405 W 2nd St,Unit 100,Dixon,IL,61021,5003,255,C770
950,1000041517,26741 Little John Ct,Apt 16,Bonita Springs,FL,34135,6395,164,R822
951,1000041580,1508 Rainer Rd,,Brookhaven,PA,19015,1942,080,C058
952,1000041613,4024 Wildcat Ct,,Milwaukee,WI,53228,1890,246,C080
953,1000041651,8110 Whittaker St,,Detroit,MI,48209,1591,100,C013
954,1000041694,PO Box 213,,Taylor,NE,68879,0213,132,B003
955,1000041726,8177 S Cleveland Massillon Rd,Lot 45,Clinton,OH,44216,9147,453,R006
956,1000041728,129 N Prince St,,Millersville,PA,17551,1704,298,C004
957,1000041801,4005 Gram Ln,,Waco,TX,76705,3122,052,C017
958,1000041806,2392 Susan Dr,,Crestview,FL,32536,9521,923,R007
959,1000041972,570 Thayer Rd,,Santa Cruz,CA,95060,9726,709,H061
960,1000041988,308 Deer Holw,,Brandon,MS,39047,6468,085,R005
961,1000042052,PO Box 4268,,Kayenta,AZ,86033,4268,686,B041
962,1000042061,PO Box 820,,Gurabo,PR,00778,0820,206,B007
963,1000042101,1630 E 361st St,Unit 11,Eastlake,OH,44095,5333,112,C009
964,1000042121,933 N Main St,Ste 202,Salinas,CA,93906,3983,523,C019
965,1000042153,255 Blue Run Rd,Apt 3,Cheswick,PA,15024,4021,038,R003
966,1000042204,7819 W Collingham Dr,Apt F,Dundalk,MD,21222,2541,784,C025
967,1000042207,22145 Willmarth,,Detroit,MI,48219,2331,458,C056
968,1000042218,PO Box 273,,Scottdale,PA,15683,0273,735,B002
969,1000042239,4548 Via Madrid,,Union City,CA,94587,3862,486,C024
970,1000042288,17000 El Camino Real,Ste 210D,Houston,TX,77058,2633,045,C015
971,1000042338,29 Candlewood Trailer Park,,Danbury,CT,06811,3362,299,C033
972,1000042476,181 Sunland Blvd,,McDonough,GA,30253,6001,811,R026
973,1000042671,120 F St NW,Apt 193,Washington,DC,20001,2036,439,C003
974,1000042743,123 23rd St,Apt B,Gulfport,MS,39507,1741,742,C041
975,1000042744,63 High St,,Andover,MA,01810,3527,634,C011
976,1000042824,818 SW 3rd Ave,,Cape Coral,FL,33991,2503,186,R154
977,1000042873,3725 Airport Blvd,Ste 143,Mobile,AL,36608,1635,435,C034
978,1000042885,182 Bolton St,Apt 1,Boston,MA,02127,1682,010,C012
979,1000042912,35 Yvonda Way,,Savannah,TN,38372,5057,352,R006
980,1000042947,508 Cottonwood Loop,,Bismarck,ND,58504,7409,080,C034
981,1000043034,1047 Langley Rd,Apt 11,Waterloo,IA,50702,4245,119,C075
982,1000043069,2207 Mallard Dr,,Mahomet,IL,61853,9405,072,R002
983,1000043079,815 College Dr,Apt 18B,New Town,ND,58763,9123,826,H002
984,1000043099,3670 Beacon Hill Rd,Apt 101,Port Orange,FL,32129,5367,264,R025
985,1000043126,PO Box 849,,Vernon,FL,32462,0849,499,B008
986,1000043178,8951 SW 8th St,,Plantation,FL,33324,3723,514,C001
987,1000043197,496 Buckner Creek Rd,,Montross,VA,22520,3844,965,R004
988,1000043212,256 Twin Creek Dr,,Blanco,TX,78606,4955,569,R001
989,1000043231,11517 Durant Ave,,Cleveland,OH,44108,2613,173,C009
990,1000043254,922 Sea Cliff Dr,,Carlsbad,CA,92011,1139,229,C019
991,1000043288,1830 Alemany Blvd,Apt 611,San Francisco,CA,94112,3277,617,C050
992,1000043412,1624 16th Ave S,Apt 2,Nashville,TN,37212,2910,021,C009
993,1000043432,6644 County Road 203,,Danville,AL,35619,5546,448,R002
994,1000043460,1755 Argyle Ave,Apt 601,Los Angeles,CA,90028,5266,516,C023
995,1000043477,6867 N Bethel Ave,,Clovis,CA,93619,8882,673,R002
996,1000043502,813 Brisbane St,,Hemet,CA,92545,6361,135,C071
997,1000043537,11700 Lebanon Rd,Apt 227,Frisco,TX,75035,8271,525,R021
998,1000043621,315 E Avenue B,,South Hutchinson,KS,67505,1847,151,C025
999,1000043647,716 Governors Hill Ln,,Raleigh,NC,27603,1149,160,C017
1000,1000043676,1424 Hiawatha Ln,,Burkburnett,TX,76354,2806,243,C005
